TIANYAN 01              
1 44881U 19093C   24137.81617963  .00002873  00000+0  35371-3 0  9996
2 44881  97.8281 215.2045 0015709  68.2184 292.0700 14.83642028238395
RS-44 & BREEZE-KM R/B   
1 44909U 19096E   24137.68345699  .00000051  00000+0  15178-3 0  9998
2 44909  82.5177 125.7095 0218450 124.6771 237.5130 12.79729698204945
BY70-2                  
1 45857U 20042B   24137.88595520  .00175586  00000+0  73011-2 0  9991
2 45857  97.9062 229.5537 0007436 280.4619  79.5778 15.22977828209776
SALSAT                  
1 46495U 20068K   24137.39513814  .00012278  00000+0  70436-3 0  9997
2 46495  97.8139  95.9043 0015910  66.3400 293.9498 15.12606346199504
UVSQ-SAT                
1 47438U 21006AB  24137.91367382  .00069870  00000+0  14948-2 0  9998
2 47438  97.3293 198.0452 0004630 323.8413  36.2522 15.44550241183909
LEDSAT                  
1 49069U 21073D   24138.13595255  .00027159  00000+0  11261-2 0  9990
2 49069  97.4388 209.4972 0019859  37.5529 322.7091 15.23668775151725
XW-3 (CAS-9)            
1 50466U 21131B   24138.19730474  .00001660  00000+0  54555-3 0  9991
2 50466  98.5273 223.4128 0003728 202.9615 157.1406 14.39592002125540
TEVEL-3                 
1 50988U 22002E   24138.15047902  .00161575  00000+0  20769-2 0  9992
2 50988  97.3797 212.6478 0003787 159.2256 200.9155 15.58533265130200
TEVEL-8                 
1 50989U 22002F   24138.18899145  .00159656  00000+0  20642-2 0  9997
2 50989  97.3821 212.7786 0003902 159.4704 200.6710 15.58383949130207
TEVEL-5                 
1 50998U 22002Q   24138.18812689  .00200469  00000+0  21523-2 0  9993
2 50998  97.3784 213.8940 0003296 163.3147 196.8220 15.63124992130298
TEVEL-6                 
1 50999U 22002R   24138.19393019  .00198820  00000+0  21506-2 0  9994
2 50999  97.3780 213.8677 0003255 163.2143 196.9224 15.62938068130293
TEVEL-1                 
1 51013U 22002AF  24138.17797691  .00158567  00000+0  20530-2 0  9994
2 51013  97.3786 212.5405 0003584 155.5740 204.5686 15.58351309130205
TEVEL-7                 
1 51062U 22002CG  24138.17808195  .00164790  00000+0  21166-2 0  9991
2 51062  97.3803 212.7423 0003538 155.7314 204.4110 15.58543519130206
TEVEL-4                 
1 51063U 22002CH  24138.15028012  .00158207  00000+0  20681-2 0  9999
2 51063  97.3809 212.6188 0003602 154.2653 205.8783 15.58095627130193
TEVEL-2                 
1 51069U 22002CP  24138.14846799  .00163202  00000+0  20940-2 0  9993
2 51069  97.3793 212.6137 0003655 158.7284 201.4124 15.58576583130200
GREENCUBE               
1 53106U 22080B   24129.12370289 -.00000003  00000+0  00000+0 0  9999
2 53106  70.1412 206.4364 0007827 115.6229 244.5240  6.42557310 42692
KUZBASS-300 (RS34S)     
1 53375U 22096F   24137.99321260  .03562533  24500-5  14827-2 0  9998
2 53375  97.3729  59.6072 0008437 188.4459 171.6691 16.23064349 99649
MIET-AIS (RS28S)        
1 53377U 22096H   24137.95300347  .00416011  00000+0  16508-2 0  9996
2 53377  97.3847  57.8921 0006982 128.1660 232.0240 15.85655134 99527
KAI-1 (RS26S)           
1 53378U 22096J   24138.17247279  .00115242  00000+0  12129-2 0  9993
2 53378  97.3965  55.4496 0005190 105.9900 254.1930 15.63903352 99378
ISOI (RS19S)            
1 53381U 22096M   24137.99966222  .00491587  92631-4  17271-2 0  9990
2 53381  97.3847  58.9067 0007035 134.0189 226.1664 15.89131678 99594
SIREN (RS30S)           
1 53384U 22096Q   24137.42032016  .00243382  00000+0  16565-2 0  9993
2 53384  97.3904  56.5174 0004880 127.1985 232.9725 15.74175770 99381
CAS-5A (FO-118)         
1 54684U 22167C   24138.18574249  .00039244  00000+0  14208-2 0  9991
2 54684  97.6016 282.3287 0010368 249.5095 110.5031 15.28242720 79563
STRATOSAT-TK 1 (RS52S)  
1 57167U 23091B   24138.18019189  .00022124  00000+0  13110-2 0  9994
2 57167  97.6134 191.3549 0015129 220.2006 139.8106 15.11304142 48877
UMKA 1 (RS40S)          
1 57172U 23091G   24138.19855436  .00009763  00000+0  65183-3 0  9996
2 57172  97.6145 190.5631 0015883 222.1199 137.8809 15.07122629 48825
CUBESX-HSE 3 (RS42S)    
1 57178U 23091N   24138.18057730  .00013726  00000+0  88528-3 0  9994
2 57178  97.6172 190.8952 0016862 217.0844 142.9220 15.08296212 48834
MONITOR-4 (RS57S)       
1 57182U 23091S   24138.15892502  .00013698  00000+0  89348-3 0  9999
2 57182  97.6166 190.7208 0017185 218.5652 141.4349 15.07875857 48829
MONITOR-2 (RS39S)       
1 57184U 23091U   24138.16513981  .00009665  00000+0  64285-3 0  9995
2 57184  97.6167 190.8869 0013748 211.5117 148.5288 15.07288713 48836
SVYATOBOR 1 (RS60S)     
1 57187U 23091X   24138.15134499  .00012419  00000+0  79448-3 0  9998
2 57187  97.6177 191.2182 0013273 207.5945 152.4581 15.08664140 48855
VIZARD-METEO (RS38S)    
1 57189U 23091Z   24138.20040741  .00014884  00000+0  91942-3 0  9993
2 57189  97.6168 191.5828 0012298 203.5714 156.4953 15.09914795 48888
NANOZOND 1 (RS49S)      
1 57190U 23091AA  24138.18477408  .00019737  00000+0  11455-2 0  9998
2 57190  97.6136 191.9551 0010856 208.2782 151.7860 15.12127092 48916
POLYTECH-UNIVERSE 3 (R*)
1 57191U 23091AB  24138.16815321  .00009574  00000+0  63712-3 0  9999
2 57191  97.6131 190.5922 0018816 230.6320 129.3241 15.07206166 48828
UTMN 2 (RS27S)          
1 57203U 23091AP  24138.18184015  .00013495  00000+0  84403-3 0  9991
2 57203  97.6161 191.4514 0012710 205.3707 154.6899 15.09478663 48877
ARCCUBE 1 (RS25S)       
1 57205U 23091AR  24138.18332253  .00023371  00000+0  13203-2 0  9995
2 57205  97.6109 192.0240 0011015 209.5855 150.4754 15.13060310 48922
KUZGTU 1 (RS47S)        
1 57217U 23091AV  24138.18648284  .00012895  00000+0  83477-3 0  9992
2 57217  97.6149 190.7831 0016666 218.0460 141.9592 15.08176876 48838
HADES-D (SO-121)        
1 58567U 23174CY  24138.15230921  .00057753  00000+0  21962-2 0  9997
2 58567  97.4554 213.8549 0010702 336.1406  23.9335 15.26514254 29047
CUTE-1 (CO-55)          
1 27844U 03031E   24137.73621280  .00001167  00000+0  53480-3 0  9995
2 27844  98.6774 145.2044 0008721 231.2358 128.8041 14.23230798 83318
CUBESAT XI-IV (CO-57)   
1 27848U 03031J   24137.72836138  .00000983  00000+0  45842-3 0  9996
2 27848  98.6804 145.4591 0008432 249.3516 110.6758 14.22676853 83061
CUBESAT XI-V            
1 28895U 05043F   24137.33392789  .00004943  00000+0  87793-3 0  9991
2 28895  98.1969 273.1282 0016961  98.5352 261.7775 14.67540477989787
CUTE-1.7+APD II (CO-65) 
1 32785U 08021C   24137.85978853  .00013617  00000+0  12050-2 0  9993
2 32785  97.7532 103.4622 0013478  74.5296 285.7413 14.96336164870866
AAUSAT-II               
1 32788U 08021F   24137.44430793  .00036314  00000+0  18897-2 0  9991
2 32788  97.5933 117.6285 0002651 290.4848  69.6099 15.15934997873511
SEEDS II (CO-66)        
1 32791U 08021J   24137.85557261  .00019199  00000+0  14217-2 0  9994
2 32791  97.6901 109.2195 0007507  65.6350 294.5658 15.03158314871812
SWISSCUBE               
1 35932U 09051B   24137.61745757  .00003909  00000+0  84301-3 0  9995
2 35932  98.4755  20.2945 0008532  60.8434 299.3617 14.58964318777958
BEESAT-1                
1 35933U 09051C   24137.41077333  .00002826  00000+0  61576-3 0  9998
2 35933  98.4681  21.0339 0006928  72.9280 287.2677 14.58708996777997
ITUPSAT1                
1 35935U 09051E   24137.40273402  .00002564  00000+0  57220-3 0  9994
2 35935  98.4781  20.8273 0009219  77.5157 282.7072 14.57673076777633
TISAT 1                 
1 36799U 10035E   24137.43984192  .00017128  00000+0  13135-2 0  9993
2 36799  98.0933  25.5035 0004664 344.5628  15.5452 15.01879011752290
M-CUBED & EXP-1 PRIME   
1 37855U 11061F   24137.69097538  .00358346  00000+0  25260-2 0  9996
2 37855 101.6881 303.6711 0039726  70.4530 290.1001 15.71958194688085
AEROCUBE 4.5A           
1 38767U 12048K   24137.77560786  .00034530  00000+0  19039-2 0  9997
2 38767  64.6620  55.1146 0105885  29.5213 331.1828 15.09079875255726
AEROCUBE 4.5B           
1 38768U 12048L   24137.28640225  .00046670  00000+0  17697-2 0  9997
2 38768  64.6579 344.3639 0085939  17.6112 342.7961 15.23160393256564
STRAND-1                
1 39090U 13009E   24137.50528185  .00001162  00000+0  41410-3 0  9997
2 39090  98.3822 326.6656 0008696 355.6056   4.5053 14.36041851587693
BRITE-AUSTRIA           
1 39091U 13009F   24137.75422159  .00000762  00000+0  27783-3 0  9991
2 39091  98.3865 326.1764 0010302   0.6741 359.4457 14.35785837587756
NEE-01 PEGASO           
1 39151U 13018B   24137.28885549  .00007235  00000+0  84190-3 0  9999
2 39151  98.0321 254.1001 0015987 141.0242 219.2128 14.85509748597233
ESTCUBE 1               
1 39161U 13021C   24137.41840932  .00004886  00000+0  71270-3 0  9990
2 39161  97.8291 204.8517 0008181 341.4596  18.6315 14.76213123592409
POPACS 1                
1 39268U 13055D   24137.15352263  .00054433  00000+0  98052-3 0  9991
2 39268  80.9840 187.9312 0419095 195.4318 163.3799 14.89401418557239
POPACS 2                
1 39269U 13055E   24137.33371014  .00025498  00000+0  58708-3 0  9990
2 39269  81.0007 273.9446 0555154  60.1339 305.3830 14.56021321550961
POPACS 3                
1 39270U 13055F   24137.78464529  .00019697  00000+0  54591-3 0  9995
2 39270  81.0073 323.1142 0631073 197.8437 159.9668 14.36124707528450
ZACUBE-1 (TSHEPISOSAT)  
1 39417U 13066B   24137.60449204  .00011250  00000+0  11773-2 0  9995
2 39417  97.7315  94.2953 0049068 264.8587  94.7029 14.88888031566880
WNISAT-1                
1 39423U 13066H   24137.80378643  .00003143  00000+0  60479-3 0  9992
2 39423  97.6731 334.6727 0171616 107.7180 254.2833 14.55179060555879
TRITON-1                
1 39427U 13066M   24137.82191319  .00005727  00000+0  81077-3 0  9998
2 39427  97.8427  56.8257 0103073 182.2402 177.8359 14.73814881561591
